SL-16 R/B               
1 24298U 96051B   26180.49559471  .00000132  00000+0  98262-4 0  9993
2 24298  70.7653 298.6000 0016528 319.1732  40.8148 14.12450265537435
ORBVIEW 2 (SEASTAR)     
1 24883U 97037A   26180.42641147  .00000252  00000+0  10378-3 0  9997
2 24883  98.8696 347.7851 0003337  91.9591 268.1976 14.35559634524508
SL-16 R/B               
1 25400U 98043G   26180.50102102  .00000030  00000+0  31620-4 0  9991
2 25400  98.8370 134.7665 0010774  54.3075 305.9105 14.26070469454929
SL-16 R/B               
1 25407U 98045B   26180.52596104  .00000256  00000+0  15320-3 0  9999
2 25407  71.0125 306.3797 0008860 225.7650 134.2746 14.16205326442939
ISS (ZARYA)             
1 25544U 98067A   26180.50883825  .00005660  00000+0  10902-3 0  9997
2 25544  51.6320 239.0980 0004278 246.9974 113.0563 15.49477794573665
CZ-4B R/B               
1 25732U 99025C   26180.56676912  .00000039  00000+0  39332-4 0  9998
2 25732  98.6478 222.0935 0037513  24.7150  99.3971 14.18285428404025
OKEAN-O                 
1 25860U 99039A   26179.70217973  .00000552  00000+0  78972-4 0  9990
2 25860  97.9311 238.3677 0001284  70.0545 290.0805 14.80480206450810
SL-16 R/B               
1 25861U 99039B   26179.91582638  .00000447  00000+0  63307-4 0  9996
2 25861  97.9834 238.7453 0013402 254.9362 105.0368 14.81855954453338
DELTA 2 R/B             
1 25876U 99041E   26180.49138534  .00001159  00000+0  22440-3 0  9995
2 25876  51.7622 214.6427 0501037 318.3824  37.9971 14.12038075378829
HELIOS 1B               
1 25977U 99064A   26180.28261069  .00001417  00000+0  16067-3 0  9994
2 25977  98.1605  85.7720 0002457  74.3660 285.7826 14.88037569701854
TERRA                   
1 25994U 99068A   26180.56876391  .00000383  00000+0  86946-4 0  9993
2 25994  97.9450 229.6238 0002535 155.4896   5.5244 14.61112539411414
SL-16 R/B               
1 26070U 00006B   26180.49970940  .00000185  00000+0  11820-3 0  9998
2 26070  71.0013 222.7364 0016332   3.4997 356.6238 14.15839967364382
TITAN 4B R/B            
1 26474U 00047B   26180.51128027  .00002635  00000+0  16511-3 0  9999
2 26474  67.9892  85.8830 0045886 274.6945  84.8964 15.10263309409794
ENVISAT                 
1 27386U 02009A   26180.49654567  .00000080  00000+0  39888-4 0  9997
2 27386  98.3838 131.5407 0001385  85.9781  27.7210 14.39067553275256
IDEFIX & ARIANE 42P R/B 
1 27422U 02021B   26180.43497280  .00000200  00000+0  92323-4 0  9990
2 27422  98.5943 117.7855 0010942 214.1851 145.8629 14.31087429260001
AQUA                    
1 27424U 02022A   26180.51824992  .00000775  00000+0  16377-3 0  9997
2 27424  98.4283 150.0479 0000719  69.9480  40.8911 14.62176214285073
CZ-4B R/B               
1 27432U 02024C   26179.70856479  .00000047  00000+0  46777-4 0  9992
2 27432  98.8695 232.4537 0051136  68.1893  41.5644 14.14565997244939
MIDORI II (ADEOS-II)    
1 27597U 02056A   26180.45831838  .00000240  00000+0  11199-3 0  9999
2 27597  98.7884 139.8228 0002016  60.3052 299.8330 14.29355934226261
H-2A R/B                
1 27601U 02056E   26180.51334286  .00000186  00000+0  79727-4 0  9998
2 27601  98.3317 136.7388 0069847 187.4816 286.3540 14.33827120230132
CZ-4B R/B               
1 28059U 03049C   26180.53993435  .00000262  00000+0  71829-4 0  9998
2 28059  98.6899 179.8784 0046938 249.9223 109.6918 14.55107547202861
CZ-2C R/B               
1 28222U 04012C   26179.93953779  .00117323  00000+0  58807-3 0  9997
2 28222  97.7077 256.9890 0010614 240.6071 119.4137 15.81356845221755
SL-16 R/B               
1 28353U 04021B   26180.53590330  .00000226  00000+0  14255-3 0  9992
2 28353  71.0008 357.7720 0006742 239.2550 120.7908 14.14608802138659
CZ-4B R/B               
1 28415U 04035C   26179.63803173  .00006854  00000+0  23011-3 0  9990
2 28415  97.3362 212.5829 0028946 295.1770  64.6469 15.30781837196870
CZ-2C R/B               
1 28480U 04046B   26180.32177116  .00000104  00000+0  53601-4 0  9994
2 28480  98.1936  88.3439 0139181 184.2213 175.7806 14.27029232124428
ARIANE 5 R/B            
1 28499U 04049H   26180.45704516  .00000580  00000+0  70379-4 0  9990
2 28499  98.2728 353.1844 0083570 349.7544  10.1963 14.85463111162381
CZ-2D R/B               
1 28738U 05024B   26179.62712399  .00053065  00000+0  42657-3 0  9998
2 28738  97.3472 199.6359 0001082  18.6981 341.4322 15.70817398157133
ALOS (DAICHI)           
1 28931U 06002A   26180.47838721  .00001093  00000+0  19027-3 0  9992
2 28931  98.1329 136.0078 0000995  59.6784 300.4520 14.70074407 89908
H-2A R/B                
1 28932U 06002B   26180.44593691  .00007920  00000+0  37849-3 0  9991
2 28932  98.2573 337.3856 0049956 219.8219 139.9343 15.18223278111385
RESURS-DK 1             
1 29228U 06021A   26180.46258758  .00002192  00000+0  12901-3 0  9993
2 29228  69.9340 307.7770 0006710 285.9548  74.0878 15.13266643104435
CZ-4B R/B               
1 29507U 06046C   26179.72395413  .00003784  00000+0  18802-3 0  9991
2 29507  97.5447 224.2953 0031196 240.5967 119.2152 15.17865055 76884
CZ-2C R/B               
1 31114U 07010B   26180.31794468  .00000072  00000+0  52243-4 0  9995
2 31114  98.4110 288.0762 0058324 330.6919  29.0990 14.20278661995561
