OBJECT_NAME,OBJECT_ID,EPOCH,MEAN_MOTION,ECCENTRICITY,INCLINATION,RA_OF_ASC_NODE,ARG_OF_PERICENTER,MEAN_ANOMALY,EPHEMERIS_TYPE,CLASSIFICATION_TYPE,NORAD_CAT_ID,ELEMENT_SET_NO,REV_AT_EPOCH,BSTAR,MEAN_MOTION_DOT,MEAN_MOTION_DDOT
SL-16 R/B,1996-051B,2026-06-29T11:53:39.382944,14.12450265,.0016528,70.7653,298.6000,319.1732,40.8148,0,U,24298,999,53743,.98262E-4,.132E-5,0
ORBVIEW 2 (SEASTAR),1997-037A,2026-06-29T10:14:01.951008,14.35559634,.0003337,98.8696,347.7851,91.9591,268.1976,0,U,24883,999,52450,.10378E-3,.252E-5,0
SL-16 R/B,1998-043G,2026-06-29T12:01:28.216128,14.26070469,.0010774,98.8370,134.7665,54.3075,305.9105,0,U,25400,999,45492,.3162E-4,.3E-6,0
SL-16 R/B,1998-045B,2026-06-29T12:37:23.033856,14.16205326,.000886,71.0125,306.3797,225.7650,134.2746,0,U,25407,999,44293,.1532E-3,.256E-5,0
ISS (ZARYA),1998-067A,2026-06-29T12:12:43.624800,15.49477794,.0004278,51.6320,239.0980,246.9974,113.0563,0,U,25544,999,57366,.10902E-3,.566E-4,0
CZ-4B R/B,1999-025C,2026-06-29T13:36:08.851968,14.18285428,.0037513,98.6478,222.0935,24.7150,99.3971,0,U,25732,999,40402,.39332E-4,.39E-6,0
OKEAN-O,1999-039A,2026-06-28T16:51:08.328672,14.80480206,.00012843,97.9311,238.3677,70.0545,290.0805,0,U,25860,999,45081,.78971605E-4,.552E-5,0
SL-16 R/B,1999-039B,2026-06-28T21:58:47.399232,14.81855954,.0013402,97.9834,238.7453,254.9362,105.0368,0,U,25861,999,45333,.63307215E-4,.447E-5,0
DELTA 2 R/B,1999-041E,2026-06-29T11:47:35.693376,14.12038075,.0501037,51.7622,214.6427,318.3824,37.9971,0,U,25876,999,37882,.2244E-3,.1159E-4,0
HELIOS 1B,1999-064A,2026-06-29T06:46:57.563616,14.88037569,.0002457,98.1605,85.7720,74.3660,285.7826,0,U,25977,999,70185,.16067E-3,.1417E-4,0
TERRA,1999-068A,2026-06-29T13:39:01.201824,14.61112539,.0002535,97.9450,229.6238,155.4896,5.5244,0,U,25994,999,41141,.86946E-4,.383E-5,0
SL-16 R/B,2000-006B,2026-06-29T11:59:34.892160,14.15839967,.0016332,71.0013,222.7364,3.4997,356.6238,0,U,26070,999,36438,.1182E-3,.185E-5,0
TITAN 4B R/B,2000-047B,2026-06-29T12:16:14.615328,15.10263309,.0045886,67.9892,85.8830,274.6945,84.8964,0,U,26474,999,40979,.16511E-3,.2635E-4,0
ENVISAT,2002-009A,2026-06-29T11:55:01.545888,14.39067553,.0001385,98.3838,131.5407,85.9781,27.7210,0,U,27386,999,27525,.39888E-4,.8E-6,0
IDEFIX & ARIANE 42P R/B,2002-021B,2026-06-29T10:26:21.649920,14.31087429,.0010942,98.5943,117.7855,214.1851,145.8629,0,U,27422,999,26000,.92323E-4,.2E-5,0
AQUA,2002-022A,2026-06-29T12:26:16.793088,14.62176214,.0000719,98.4283,150.0479,69.9480,40.8911,0,U,27424,999,28507,.16377E-3,.775E-5,0
CZ-4B R/B,2002-024C,2026-06-28T17:00:19.997856,14.14565997,.00511369,98.8695,232.4537,68.1893,41.5644,0,U,27432,999,24493,.46776616E-4,.47E-6,0
MIDORI II (ADEOS-II),2002-056A,2026-06-29T10:59:58.708032,14.29355934,.0002016,98.7884,139.8228,60.3052,299.8330,0,U,27597,999,22626,.11199E-3,.24E-5,0
H-2A R/B,2002-056E,2026-06-29T12:19:12.823104,14.33827120,.0069847,98.3317,136.7388,187.4816,286.3540,0,U,27601,999,23013,.79727E-4,.186E-5,0
CZ-4B R/B,2003-049C,2026-06-29T12:57:30.327840,14.55107547,.0046938,98.6899,179.8784,249.9223,109.6918,0,U,28059,999,20286,.71829E-4,.262E-5,0
CZ-2C R/B,2004-012C,2026-06-28T22:32:56.065056,15.81356845,.00106148,97.7077,256.9890,240.6071,119.4137,0,U,28222,999,22175,.58806691E-3,.117323E-2,0
SL-16 R/B,2004-021B,2026-06-29T12:51:42.045120,14.14608802,.0006742,71.0008,357.7720,239.2550,120.7908,0,U,28353,999,13865,.14255E-3,.226E-5,0
CZ-4B R/B,2004-035C,2026-06-28T15:18:45.941472,15.30781837,.00289469,97.3362,212.5829,295.1770,64.6469,0,U,28415,999,19687,.23010962E-3,.6854E-4,0
CZ-2C R/B,2004-046B,2026-06-29T07:43:21.028224,14.27029232,.0139181,98.1936,88.3439,184.2213,175.7806,0,U,28480,999,12442,.53601E-4,.104E-5,0
ARIANE 5 R/B,2004-049H,2026-06-29T10:58:08.701824,14.85463111,.008357,98.2728,353.1844,349.7544,10.1963,0,U,28499,999,16238,.70379E-4,.58E-5,0
CZ-2D R/B,2005-024B,2026-06-28T15:03:03.512736,15.70817398,.00010824,97.3472,199.6359,18.6981,341.4322,0,U,28738,999,15713,.42657276E-3,.53065E-3,0
ALOS (DAICHI),2006-002A,2026-06-29T11:28:52.654944,14.70074407,.0000995,98.1329,136.0078,59.6784,300.4520,0,U,28931,999,8990,.19027E-3,.1093E-4,0
H-2A R/B,2006-002B,2026-06-29T10:42:08.949024,15.18223278,.0049956,98.2573,337.3856,219.8219,139.9343,0,U,28932,999,11138,.37849E-3,.792E-4,0
RESURS-DK 1,2006-021A,2026-06-29T11:06:07.566912,15.13266643,.000671,69.9340,307.7770,285.9548,74.0878,0,U,29228,999,10443,.12901E-3,.2192E-4,0
CZ-4B R/B,2006-046C,2026-06-28T17:22:29.636832,15.17865055,.00311966,97.5447,224.2953,240.5967,119.2152,0,U,29507,999,7688,.188024E-3,.3784E-4,0
CZ-2C R/B,2007-010B,2026-06-29T07:37:50.420352,14.20278661,.0058324,98.4110,288.0762,330.6919,29.0990,0,U,31114,999,99556,.52243E-4,.72E-6,0
